NORAD_CAT_ID,OBJECT_NAME,OBJECT_TYPE,EPOCH,MEAN_MOTION,ECCENTRICITY,INCLINATION,RA_OF_ASC_NODE,ARG_OF_PERICENTER,MEAN_ANOMALY,BSTAR,MEAN_MOTION_DOT,MEAN_MOTION_DDOT,TLE_LINE0,TLE_LINE1,TLE_LINE2,SEMIMAJOR_AXIS,PERIOD,APOGEE,PERIGEE,DECAYED
53574.0,STARLINK-4559,PAYLOAD,2022-08-24 14:00:01,15.90366615,0.0040675,53.2173,131.3886,56.0672,47.458,-0.0038328,-0.01289768,0.00047824,0 STARLINK-4559,1 53574U 22101AZ  22236.58334491 -.01289768  47824-3 -38328-2 0  9999,2 53574  53.2173 131.3886 0040675  56.0672  47.4580 15.90366615   779,6679.393,90.545,328.427,274.09,0.0
53574.0,STARLINK-4559,PAYLOAD,2022-08-25 06:00:02,15.88664313,0.0032196,53.2171,128.0112,57.4326,263.211,-0.0045335,-0.01357326,0.00051655,0 STARLINK-4559,1 53574U 22101AZ  22237.25002315 -.01357326  51655-3 -45335-2 0  9990,2 53574  53.2171 128.0112 0032196  57.4326 263.2110 15.88664313   873,6684.1640000000025,90.642,327.5490000000001,284.508,0.0
53574.0,STARLINK-4559,PAYLOAD,2022-08-25 12:00:00,15.88014131,0.003116,53.2175,126.7446,58.0427,252.8599,-0.0047133999999999,-0.0136134,0.00051622,0 STARLINK-4559,1 53574U 22101AZ  22237.50001157 -.01361340  51622-3 -47134-2 0  9995,2 53574  53.2175 126.7446 0031160  58.0427 252.8599 15.88014131   918,6685.988,90.679,328.6869999999999,287.02,0.0
53574.0,STARLINK-4559,PAYLOAD,2022-08-25 14:00:01,15.87765194,0.0030402,53.2174,126.3225,57.6311,9.9273,-0.0045474,-0.01295088,0.00047027,0 STARLINK-4559,1 53574U 22101AZ  22237.58334491 -.01295088  47027-3 -45474-2 0  9997,2 53574  53.2174 126.3225 0030402  57.6311   9.9273 15.87765194  1308,6686.687,90.694,328.881,288.223,0.0
53574.0,STARLINK-4559,PAYLOAD,2022-08-25 18:00:00,15.87363246,0.0028256,53.2176,125.4808,58.2589,242.3807,-0.0049086,-0.01361823,0.00051348,0 STARLINK-4559,1 53574U 22101AZ  22237.75001157 -.01361823  51348-3 -49086-2 0  9991,2 53574  53.2176 125.4808 0028256  58.2589 242.3807 15.87363246   953,6687.816,90.716,328.5780000000001,290.784,0.0
53574.0,STARLINK-4559,PAYLOAD,2022-08-25 22:00:00,15.86915561,0.0026718,53.2176,124.6399,57.38,116.0959,-0.004928,-0.01332518,0.0004915,0 STARLINK-4559,1 53574U 22101AZ  22237.91667824 -.01332518  49150-3 -49280-2 0  9991,2 53574  53.2176 124.6399 0026718  57.3800 116.0959 15.86915561  1303,6689.073,90.742,328.81,293.067,0.0
53574.0,STARLINK-4559,PAYLOAD,2022-08-26 12:00:00,15.854169400000002,0.0020905,53.2174,121.6963,58.6235,207.7053,-0.0055391,-0.01212941,0.0,0 STARLINK-4559,1 53574U 22101AZ  22238.50001157 -.01212941  00000-0 -55391-2 0  9993,2 53574  53.2174 121.6963 0020905  58.6235 207.7053 15.85416940  1076,6693.288000000001,90.828,329.145,301.161,0.0
53574.0,STARLINK-4559,PAYLOAD,2022-08-26 14:00:01,15.85172742,0.0019968,53.2172,121.2758,57.8736,324.3935,-0.0053886,-0.01169316,0.0,0 STARLINK-4559,1 53574U 22101AZ  22238.58335648 -.01169316  00000-0 -53886-2 0  9990,2 53574  53.2172 121.2758 0019968  57.8736 324.3935 15.85172742  1306,6693.975,90.842,329.207,302.474,0.0
53574.0,STARLINK-4559,PAYLOAD,2022-08-26 22:00:00,15.84300374,0.0017504,53.2172,119.5998,56.7543,68.2426,-0.0055907,-0.01158171,0.0,0 STARLINK-4559,1 53574U 22101AZ  22238.91667824 -.01158171  00000-0 -55907-2 0  9994,2 53574  53.2172 119.5998 0017504  56.7543  68.2426 15.84300374  1302,6696.432,90.892,330.019,306.576,0.0
53574.0,STARLINK-4559,PAYLOAD,2022-08-27 14:00:01,15.82586937,0.0010829,53.2175,116.2484,54.4079,273.0459,-0.0063398999999999,-0.01214554,0.0,0 STARLINK-4559,1 53574U 22101AZ  22239.58334491 -.01214554  00000-0 -63399-2 0  9991,2 53574  53.2175 116.2484 0010829  54.4079 273.0459 15.82586937  1302,6701.265,90.99,330.38699999999994,315.873,0.0
53574.0,STARLINK-4559,PAYLOAD,2022-08-27 20:00:01,15.81941595,0.0008279,53.2176,114.9962,49.7996,262.4989,-0.0065966,-0.01221268,0.0,0 STARLINK-4559,1 53574U 22101AZ  22239.83334491 -.01221268  00000-0 -65966-2 0  9991,2 53574  53.2176 114.9962 0008279  49.7996 262.4989 15.81941595  1281,6703.087,91.027,330.5019999999999,319.403,0.0
53574.0,STARLINK-4559,PAYLOAD,2022-08-27 22:00:00,15.81697133,0.0007599,53.2175,114.579,46.3704,20.756,-0.0063895,-0.0117414,0.0,0 STARLINK-4559,1 53574U 22101AZ  22239.91667824 -.01174140  00000-0 -63895-2 0  9994,2 53574  53.2175 114.5790 0007599  46.3704  20.7560 15.81697133  1308,6703.778,91.041,330.737,320.5490000000001,0.0
53574.0,STARLINK-4559,PAYLOAD,2022-08-28 14:00:01,15.79982729,0.0003236,53.2172,111.2403,20.3549,242.9699,-0.0071674999999999,-0.01207528,0.0,0 STARLINK-4559,1 53574U 22101AZ  22240.58334491 -.01207528  00000-0 -71675-2 0  9992,2 53574  53.2172 111.2403 0003236  20.3549 242.9699 15.79982729  1309,6708.627,91.14,332.662,328.321,0.0
53574.0,STARLINK-4559,PAYLOAD,2022-08-28 20:00:01,15.79324666,0.000285,53.2174,109.9931,11.2705,234.5573,-0.0073105,-0.01195993,0.0,0 STARLINK-4559,1 53574U 22101AZ  22240.83334491 -.01195993  00000-0 -73105-2 0  9992,2 53574  53.2174 109.9931 0002850  11.2705 234.5573 15.79324666  1448,6710.49,91.178,334.267,330.44199999999995,0.0
53574.0,STARLINK-4559,PAYLOAD,2022-08-28 22:00:00,15.79109603,0.0002953,53.2174,109.5774,7.805,352.0582,-0.0074,-0.01198512,0.0,0 STARLINK-4559,1 53574U 22101AZ  22240.91667824 -.01198512  00000-0 -74000-2 0  9995,2 53574  53.2174 109.5774 0002953   7.8050 352.0582 15.79109603  1300,6711.099,91.191,334.946,330.982,0.0
53574.0,STARLINK-4559,PAYLOAD,2022-08-29 12:00:00,15.77590641,0.000318,53.2175,106.667,356.4258,79.8696,-0.0079233999999999,-0.01197871,0.0,0 STARLINK-4559,1 53574U 22101AZ  22241.50001157 -.01197871  00000-0 -79234-2 0  9993,2 53574  53.2175 106.6670 0003180 356.4258  79.8696 15.77590641  1551,6715.406,91.278,339.407,335.136,0.0
53574.0,STARLINK-4559,PAYLOAD,2022-08-29 14:00:01,15.77373594,0.0003218999999999,53.2175,106.2516,5.6464,184.1642,-0.0079959,-0.01197174,0.0,0 STARLINK-4559,1 53574U 22101AZ  22241.58334491 -.01197174  00000-0 -79959-2 0  9991,2 53574  53.2175 106.2516 0003219   5.6464 184.1642 15.77373594  1301,6716.022,91.291,340.0490000000001,335.725,0.0
53574.0,STARLINK-4559,PAYLOAD,2022-08-29 22:00:00,15.76496721,0.000329,53.2174,104.5951,342.2219,300.9994,-0.0082053,-0.01182961,0.0,0 STARLINK-4559,1 53574U 22101AZ  22241.91667824 -.01182961  00000-0 -82053-2 0  9994,2 53574  53.2174 104.5951 0003290 342.2219 300.9994 15.76496721  1306,6718.512,91.342,342.588,338.167,0.0
53574.0,STARLINK-4559,PAYLOAD,2022-08-30 06:00:00,15.75636108,0.0001456,53.2172,102.9378,2.7493,12.8353,-0.0086141,-0.01192834,0.0,0 STARLINK-4559,1 53574U 22101AZ  22242.25001157 -.01192834  00000-0 -86141-2 0  9995,2 53574  53.2172 102.9378 0001456   2.7493  12.8353 15.75636108  1664,6720.959,91.392,343.802,341.845,0.0
53574.0,STARLINK-4559,PAYLOAD,2022-08-30 14:00:01,15.74848119,0.0001346,53.2169,101.2827,39.3921,67.472,-0.0097548,-0.01314998,0.0,0 STARLINK-4559,1 53574U 22101AZ  22242.58334491 -.01314998  00000-0 -97548-2 0  9991,2 53574  53.2169 101.2827 0001346  39.3921  67.4720 15.74848119  1302,6723.2,91.437,345.97,344.16,0.0
53574.0,STARLINK-4559,PAYLOAD,2022-08-30 22:00:00,15.73747875,0.0001173,53.2173,99.6326,57.3696,139.8387,-0.0047915,-0.00639208,0.0,0 STARLINK-4559,1 53574U 22101AZ  22242.91667824 -.00639208  00000-0 -47915-2 0  9993,2 53574  53.2173  99.6326 0001173  57.3696 139.8387 15.73747875  1307,6726.334,91.501,348.98800000000006,347.41,0.0
53574.0,STARLINK-4559,PAYLOAD,2022-08-31 12:00:00,15.73208833,0.0001318,53.2168,96.7439,54.9541,208.3239,-0.00065385,-0.00091427,0.0,0 STARLINK-4559,1 53574U 22101AZ  22243.50001157 -.00091427  00000-0 -65385-3 0  9997,2 53574  53.2168  96.7439 0001318  54.9541 208.3239 15.73208833  1862,6727.87,91.533,350.622,348.848,0.0
53574.0,STARLINK-4559,PAYLOAD,2022-08-31 14:00:01,15.73106275,0.0001268,53.217,96.3309,59.3363,316.2013,0.00075669,0.00106502,0.0,0 STARLINK-4559,1 53574U 22101AZ  22243.58334491  .00106502  00000-0  75669-3 0  9990,2 53574  53.2170  96.3309 0001268  59.3363 316.2013 15.73106275  1307,6728.1619999999975,91.539,350.881,349.1740000000001,0.0
53574.0,STARLINK-4559,PAYLOAD,2022-08-31 20:00:01,15.73205901,0.0001414,53.2174,95.0945,49.2411,302.9173,-1.2950999999999997e-05,-2.438e-05,0.0,0 STARLINK-4559,1 53574U 22101AZ  22243.83334491 -.00002438  00000-0 -12951-4 0  9999,2 53574  53.2174  95.0945 0001414  49.2411 302.9173 15.73205901  1910,6727.878000000002,91.533,350.695,348.792,0.0
53574.0,STARLINK-4559,PAYLOAD,2022-08-31 22:00:00,15.73205771,0.0001469,53.2175,94.6825,48.5931,55.799,-1.5834e-05,-2.842e-05,0.0,0 STARLINK-4559,1 53574U 22101AZ  22243.91667824 -.00002842  00000-0 -15834-4 0  9999,2 53574  53.2175  94.6825 0001469  48.5931  55.7990 15.73205771  1300,6727.879,91.533,350.732,348.755,0.0
53574.0,STARLINK-4559,PAYLOAD,2022-09-01 04:00:01,15.73212354,0.0001531999999999,53.2156,93.4499,53.1044,28.1409,-0.00063694,-0.00089119,0.0,0 STARLINK-4559,1 53574U 22101AZ  22244.16668981 -.00089119  00000-0 -63694-3 0  9990,2 53574  53.2156  93.4499 0001532  53.1044  28.1409 15.73212354  1978,6727.86,91.532,350.756,348.694,0.0
53574.0,STARLINK-4559,PAYLOAD,2022-09-01 12:00:00,15.7312977,0.0001463,53.2159,91.7987,65.3271,104.7579,0.00057456,0.00080549,0.0,0 STARLINK-4559,1 53574U 22101AZ  22244.50001157  .00080549  00000-0  57456-3 0  9999,2 53574  53.2159  91.7987 0001463  65.3271 104.7579 15.73129770  2029,6728.095,91.537,350.945,348.976,0.0
53574.0,STARLINK-4559,PAYLOAD,2022-09-01 14:00:01,15.73153997,0.0001491,53.2162,91.3864,65.8994,216.4606,0.00041364,0.00057717,0.0,0 STARLINK-4559,1 53574U 22101AZ  22244.58335648  .00057717  00000-0  41364-3 0  9994,2 53574  53.2162  91.3864 0001491  65.8994 216.4606 15.73153997  1301,6728.026,91.536,350.894,348.88800000000015,0.0
53574.0,STARLINK-4559,PAYLOAD,2022-09-01 20:00:01,15.73178176,0.0001623,53.2162,90.1512,58.3389,200.686,0.00010611,0.00014283,0.0,0 STARLINK-4559,1 53574U 22101AZ  22244.83335648  .00014283  00000-0  10611-3 0  9994,2 53574  53.2162  90.1512 0001623  58.3389 200.6860 15.73178176  2078,6727.956999999999,91.534,350.914,348.73,0.0
